CCSDS_OMM_VERS = 2.0
CREATION_DATE  = 
ORIGINATOR     = 

OBJECT_NAME    = SL-16 R/B
OBJECT_ID      = 1993-016B
CENTER_NAME    = EARTH
REF_FRAME      = TEME
TIME_SYSTEM    = UTC
MEAN_ELEMENT_THEORY = SGP/SGP4

EPOCH          = 2026-02-24T11:49:21.710496
MEAN_MOTION    = 14.15300574
ECCENTRICITY   = .00109374
INCLINATION    = 71.0045
RA_OF_ASC_NODE = 242.9005
ARG_OF_PERICENTER = 332.4454
MEAN_ANOMALY   = 27.6087

EPHEMERIS_TYPE = 0
CLASSIFICATION_TYPE = U
NORAD_CAT_ID   = 22566
ELEMENT_SET_NO = 999
REV_AT_EPOCH   = 70030
BSTAR          = .93748535E-4
MEAN_MOTION_DOT = .135E-5
MEAN_MOTION_DDOT = 0

CCSDS_OMM_VERS = 2.0
CREATION_DATE  = 
ORIGINATOR     = 

OBJECT_NAME    = COSMOS 2242
OBJECT_ID      = 1993-024A
CENTER_NAME    = EARTH
REF_FRAME      = TEME
TIME_SYSTEM    = UTC
MEAN_ELEMENT_THEORY = SGP/SGP4

EPOCH          = 2026-02-24T14:20:28.110912
MEAN_MOTION    = 14.96489290
ECCENTRICITY   = .00162572
INCLINATION    = 82.5166
RA_OF_ASC_NODE = 279.2414
ARG_OF_PERICENTER = 354.8680
MEAN_ANOMALY   = 5.2372

EPHEMERIS_TYPE = 0
CLASSIFICATION_TYPE = U
NORAD_CAT_ID   = 22626
ELEMENT_SET_NO = 999
REV_AT_EPOCH   = 77843
BSTAR          = .15097243E-3
MEAN_MOTION_DOT = .1744E-4
MEAN_MOTION_DDOT = 0

CCSDS_OMM_VERS = 2.0
CREATION_DATE  = 
ORIGINATOR     = 

OBJECT_NAME    = SL-16 R/B
OBJECT_ID      = 1993-059B
CENTER_NAME    = EARTH
REF_FRAME      = TEME
TIME_SYSTEM    = UTC
MEAN_ELEMENT_THEORY = SGP/SGP4

EPOCH          = 2026-02-24T08:22:15.722976
MEAN_MOTION    = 14.17228725
ECCENTRICITY   = .00190441
INCLINATION    = 70.9902
RA_OF_ASC_NODE = 39.2587
ARG_OF_PERICENTER = 234.8805
MEAN_ANOMALY   = 125.0534

EPHEMERIS_TYPE = 0
CLASSIFICATION_TYPE = U
NORAD_CAT_ID   = 22803
ELEMENT_SET_NO = 999
REV_AT_EPOCH   = 67764
BSTAR          = .1426074E-3
MEAN_MOTION_DOT = .24E-5
MEAN_MOTION_DDOT = 0

CCSDS_OMM_VERS = 2.0
CREATION_DATE  = 
ORIGINATOR     = 

OBJECT_NAME    = ARIANE 40 R/B
OBJECT_ID      = 1993-061H
CENTER_NAME    = EARTH
REF_FRAME      = TEME
TIME_SYSTEM    = UTC
MEAN_ELEMENT_THEORY = SGP/SGP4

EPOCH          = 2026-02-24T10:20:16.622880
MEAN_MOTION    = 14.32853116
ECCENTRICITY   = .00099121
INCLINATION    = 98.4946
RA_OF_ASC_NODE = 124.5783
ARG_OF_PERICENTER = 328.5070
MEAN_ANOMALY   = 31.5520

EPHEMERIS_TYPE = 0
CLASSIFICATION_TYPE = U
NORAD_CAT_ID   = 22830
ELEMENT_SET_NO = 999
REV_AT_EPOCH   = 69220
BSTAR          = .88411288E-4
MEAN_MOTION_DOT = .198E-5
MEAN_MOTION_DDOT = 0

CCSDS_OMM_VERS = 2.0
CREATION_DATE  = 
ORIGINATOR     = 

OBJECT_NAME    = COSMOS 2278
OBJECT_ID      = 1994-023A
CENTER_NAME    = EARTH
REF_FRAME      = TEME
TIME_SYSTEM    = UTC
MEAN_ELEMENT_THEORY = SGP/SGP4

EPOCH          = 2026-02-24T12:19:53.318784
MEAN_MOTION    = 14.14369459
ECCENTRICITY   = .0007331
INCLINATION    = 71.0525
RA_OF_ASC_NODE = 202.6615
ARG_OF_PERICENTER = 39.3924
MEAN_ANOMALY   = 320.7730

EPHEMERIS_TYPE = 0
CLASSIFICATION_TYPE = U
NORAD_CAT_ID   = 23087
ELEMENT_SET_NO = 999
REV_AT_EPOCH   = 64294
BSTAR          = .22888778E-3
MEAN_MOTION_DOT = .391E-5
MEAN_MOTION_DDOT = 0

CCSDS_OMM_VERS = 2.0
CREATION_DATE  = 
ORIGINATOR     = 

OBJECT_NAME    = SL-16 R/B
OBJECT_ID      = 1994-023B
CENTER_NAME    = EARTH
REF_FRAME      = TEME
TIME_SYSTEM    = UTC
MEAN_ELEMENT_THEORY = SGP/SGP4

EPOCH          = 2026-02-24T11:53:34.822752
MEAN_MOTION    = 14.15012394
ECCENTRICITY   = .00052102
INCLINATION    = 70.9990
RA_OF_ASC_NODE = 98.5985
ARG_OF_PERICENTER = 298.0857
MEAN_ANOMALY   = 61.9739

EPHEMERIS_TYPE = 0
CLASSIFICATION_TYPE = U
NORAD_CAT_ID   = 23088
ELEMENT_SET_NO = 999
REV_AT_EPOCH   = 64422
BSTAR          = .92189437E-4
MEAN_MOTION_DOT = .131E-5
MEAN_MOTION_DDOT = 0

CCSDS_OMM_VERS = 2.0
CREATION_DATE  = 
ORIGINATOR     = 

OBJECT_NAME    = SL-16 R/B
OBJECT_ID      = 1994-074B
CENTER_NAME    = EARTH
REF_FRAME      = TEME
TIME_SYSTEM    = UTC
MEAN_ELEMENT_THEORY = SGP/SGP4

EPOCH          = 2026-02-24T13:17:33.597312
MEAN_MOTION    = 14.79390593
ECCENTRICITY   = .00051256
INCLINATION    = 97.7129
RA_OF_ASC_NODE = 86.9026
ARG_OF_PERICENTER = 262.6094
MEAN_ANOMALY   = 249.9641

EPHEMERIS_TYPE = 0
CLASSIFICATION_TYPE = U
NORAD_CAT_ID   = 23343
ELEMENT_SET_NO = 999
REV_AT_EPOCH   = 68530
BSTAR          = .6881007E-4
MEAN_MOTION_DOT = .464E-5
MEAN_MOTION_DDOT = 0

CCSDS_OMM_VERS = 2.0
CREATION_DATE  = 
ORIGINATOR     = 

OBJECT_NAME    = SL-16 R/B
OBJECT_ID      = 1994-077B
CENTER_NAME    = EARTH
REF_FRAME      = TEME
TIME_SYSTEM    = UTC
MEAN_ELEMENT_THEORY = SGP/SGP4

EPOCH          = 2026-02-24T08:10:59.055456
MEAN_MOTION    = 14.15564055
ECCENTRICITY   = .00037364
INCLINATION    = 70.9845
RA_OF_ASC_NODE = 20.5698
ARG_OF_PERICENTER = 227.1284
MEAN_ANOMALY   = 132.9525

EPHEMERIS_TYPE = 0
CLASSIFICATION_TYPE = U
NORAD_CAT_ID   = 23405
ELEMENT_SET_NO = 999
REV_AT_EPOCH   = 61434
BSTAR          = -.14626349E-4
MEAN_MOTION_DOT = -.77E-6
MEAN_MOTION_DDOT = 0

CCSDS_OMM_VERS = 2.0
CREATION_DATE  = 
ORIGINATOR     = 

OBJECT_NAME    = ARIANE 40+ R/B
OBJECT_ID      = 1995-021B
CENTER_NAME    = EARTH
REF_FRAME      = TEME
TIME_SYSTEM    = UTC
MEAN_ELEMENT_THEORY = SGP/SGP4

EPOCH          = 2026-02-24T15:12:06.727680
MEAN_MOTION    = 14.39761861
ECCENTRICITY   = .00070369
INCLINATION    = 98.4525
RA_OF_ASC_NODE = 127.2911
ARG_OF_PERICENTER = 171.8121
MEAN_ANOMALY   = 357.1237

EPHEMERIS_TYPE = 0
CLASSIFICATION_TYPE = U
NORAD_CAT_ID   = 23561
ELEMENT_SET_NO = 999
REV_AT_EPOCH   = 61736
BSTAR          = .10332335E-3
MEAN_MOTION_DOT = .28E-5
MEAN_MOTION_DDOT = 0

CCSDS_OMM_VERS = 2.0
CREATION_DATE  = 
ORIGINATOR     = 

OBJECT_NAME    = SL-16 R/B
OBJECT_ID      = 1995-058B
CENTER_NAME    = EARTH
REF_FRAME      = TEME
TIME_SYSTEM    = UTC
MEAN_ELEMENT_THEORY = SGP/SGP4

EPOCH          = 2026-02-24T11:43:36.808608
MEAN_MOTION    = 14.15494214
ECCENTRICITY   = .00112024
INCLINATION    = 71.0204
RA_OF_ASC_NODE = 207.9684
ARG_OF_PERICENTER = 149.2102
MEAN_ANOMALY   = 210.9681

EPHEMERIS_TYPE = 0
CLASSIFICATION_TYPE = U
NORAD_CAT_ID   = 23705
ELEMENT_SET_NO = 999
REV_AT_EPOCH   = 56598
BSTAR          = -.93367213E-4
MEAN_MOTION_DOT = -.23E-5
MEAN_MOTION_DDOT = 0

CCSDS_OMM_VERS = 2.0
CREATION_DATE  = 
ORIGINATOR     = 

OBJECT_NAME    = SL-16 R/B
OBJECT_ID      = 1996-051B
CENTER_NAME    = EARTH
REF_FRAME      = TEME
TIME_SYSTEM    = UTC
MEAN_ELEMENT_THEORY = SGP/SGP4

EPOCH          = 2026-02-24T11:56:22.658208
MEAN_MOTION    = 14.12411863
ECCENTRICITY   = .00162663
INCLINATION    = 70.7586
RA_OF_ASC_NODE = 203.1600
ARG_OF_PERICENTER = 167.0875
MEAN_ANOMALY   = 193.0664

EPHEMERIS_TYPE = 0
CLASSIFICATION_TYPE = U
NORAD_CAT_ID   = 24298
ELEMENT_SET_NO = 999
REV_AT_EPOCH   = 51978
BSTAR          = .81255209E-4
MEAN_MOTION_DOT = .101E-5
MEAN_MOTION_DDOT = 0

CCSDS_OMM_VERS = 2.0
CREATION_DATE  = 
ORIGINATOR     = 

OBJECT_NAME    = ORBVIEW 2 (SEASTAR)
OBJECT_ID      = 1997-037A
CENTER_NAME    = EARTH
REF_FRAME      = TEME
TIME_SYSTEM    = UTC
MEAN_ELEMENT_THEORY = SGP/SGP4

EPOCH          = 2026-02-24T10:52:41.225088
MEAN_MOTION    = 14.35483347
ECCENTRICITY   = .00032073
INCLINATION    = 98.8544
RA_OF_ASC_NODE = 219.4161
ARG_OF_PERICENTER = 98.5686
MEAN_ANOMALY   = 261.5862

EPHEMERIS_TYPE = 0
CLASSIFICATION_TYPE = U
NORAD_CAT_ID   = 24883
ELEMENT_SET_NO = 999
REV_AT_EPOCH   = 50657
BSTAR          = .1190595E-3
MEAN_MOTION_DOT = .296E-5
MEAN_MOTION_DDOT = 0

